[{"OBJECT_NAME":"SALSAT","OBJECT_ID":"2020-068K","EPOCH":"2026-03-09T22:26:21.804576","MEAN_MOTION":15.28191989,"ECCENTRICITY":0.00082652,"INCLINATION":97.8859,"RA_OF_ASC_NODE":66.0795,"ARG_OF_PERICENTER":295.8051,"MEAN_ANOMALY":64.2334,"EPHEMERIS_TYPE":0,"CLASSIFICATION_TYPE":"U","NORAD_CAT_ID":46495,"ELEMENT_SET_NO":999,"REV_AT_EPOCH":30019,"BSTAR":0.00040842582,"MEAN_MOTION_DOT":0.00011156,"MEAN_MOTION_DDOT":0},{"OBJECT_NAME":"STARLINK-31804","OBJECT_ID":"2024-082L","EPOCH":"2026-03-09T13:09:53.428320","MEAN_MOTION":15.27565095,"ECCENTRICITY":8.51e-5,"INCLINATION":42.9984,"RA_OF_ASC_NODE":140.317,"ARG_OF_PERICENTER":242.8733,"MEAN_ANOMALY":117.2032,"EPHEMERIS_TYPE":0,"CLASSIFICATION_TYPE":"U","NORAD_CAT_ID":59641,"ELEMENT_SET_NO":999,"REV_AT_EPOCH":10479,"BSTAR":-5.0156e-5,"MEAN_MOTION_DOT":-1.641e-5,"MEAN_MOTION_DDOT":0}]
